
[{"ORDINAL":"1","COMMENT":"GENERATED VIA SPACETRACK.ORG API","ORIGINATOR":"JSPOC","NORAD_CAT_ID":"40335","OBJECT_NAME":"ARIANE 5 DEB (SYLDA)","OBJECT_TYPE":"DEBRIS","CLASSIFICATION_TYPE":"U","INTLDES":"14078D","EPOCH":"2015-04-08 03:17:55","EPOCH_MICROSECONDS":"581504","MEAN_MOTION":"2.36268695","ECCENTRICITY":"0.7231817","INCLINATION":"5.84","RA_OF_ASC_NODE":"156.6466","ARG_OF_PERICENTER":"282.4383","MEAN_ANOMALY":"11.5231","EPHEMERIS_TYPE":"0","ELEMENT_SET_NO":"999","REV_AT_EPOCH":"283","BSTAR":"0.0072336","MEAN_MOTION_DOT":"0.00061951","MEAN_MOTION_DDOT":"0","FILE":"1852987","TLE_LINE0":"0 ARIANE 5 DEB (SYLDA)","TLE_LINE1":"1 40335U 14078D   15098.13744886  .00061951  00000-0  72336-2 0  9994","TLE_LINE2":"2 40335 005.8400 156.6466 7231817 282.4383 011.5231 02.36268695  2830","OBJECT_ID":"2014-078D","OBJECT_NUMBER":"40335"},{"ORDINAL":"2","COMMENT":"GENERATED VIA SPACETRACK.ORG API","ORIGINATOR":"JSPOC","NORAD_CAT_ID":"40335","OBJECT_NAME":"ARIANE 5 DEB (SYLDA)","OBJECT_TYPE":"DEBRIS","CLASSIFICATION_TYPE":"U","INTLDES":"14078D","EPOCH":"2015-04-08 03:18:22","EPOCH_MICROSECONDS":"239359","MEAN_MOTION":"2.36242401","ECCENTRICITY":"0.7236461","INCLINATION":"5.8454","RA_OF_ASC_NODE":"156.4719","ARG_OF_PERICENTER":"282.7349","MEAN_ANOMALY":"11.4201","EPHEMERIS_TYPE":"0","ELEMENT_SET_NO":"999","REV_AT_EPOCH":"283","BSTAR":"0.0027205","MEAN_MOTION_DOT":"0.00031018","MEAN_MOTION_DDOT":"0","FILE":"1852626","TLE_LINE0":"0 ARIANE 5 DEB (SYLDA)","TLE_LINE1":"1 40335U 14078D   15098.13775740  .00031018  00000-0  27205-2 0  9993","TLE_LINE2":"2 40335 005.8454 156.4719 7236461 282.7349 011.4201 02.36242401  2836","OBJECT_ID":"2014-078D","OBJECT_NUMBER":"40335"},{"ORDINAL":"2","COMMENT":"GENERATED VIA SPACETRACK.ORG API","ORIGINATOR":"JSPOC","NORAD_CAT_ID":"40342","OBJECT_NAME":"CZ-4C DEB","OBJECT_TYPE":"DEBRIS","CLASSIFICATION_TYPE":"U","INTLDES":"14080E","EPOCH":"2015-04-08 04:29:29","EPOCH_MICROSECONDS":"892191","MEAN_MOTION":"13.43802949","ECCENTRICITY":"0.0013321","INCLINATION":"63.4194","RA_OF_ASC_NODE":"17.5351","ARG_OF_PERICENTER":"358.5381","MEAN_ANOMALY":"1.5615","EPHEMERIS_TYPE":"0","ELEMENT_SET_NO":"999","REV_AT_EPOCH":"1591","BSTAR":"0","MEAN_MOTION_DOT":"-9e-07","MEAN_MOTION_DDOT":"0","FILE":"1853000","TLE_LINE0":"0 CZ-4C DEB","TLE_LINE1":"1 40342U 14080E   15098.18715153 -.00000090  00000-0  00000+0 0  9999","TLE_LINE2":"2 40342 063.4194 017.5351 0013321 358.5381 001.5615 13.43802949 15914","OBJECT_ID":"2014-080E","OBJECT_NUMBER":"40342"},{"ORDINAL":"2","COMMENT":"GENERATED VIA SPACETRACK.ORG API","ORIGINATOR":"JSPOC","NORAD_CAT_ID":"40078","OBJECT_NAME":"FREGAT DEB","OBJECT_TYPE":"DEBRIS","CLASSIFICATION_TYPE":"U","INTLDES":"14037K","EPOCH":"2015-04-08 04:31:38","EPOCH_MICROSECONDS":"949599","MEAN_MOTION":"14.5170947","ECCENTRICITY":"0.0139465","INCLINATION":"98.3396","RA_OF_ASC_NODE":"153.4622","ARG_OF_PERICENTER":"104.7711","MEAN_ANOMALY":"256.8968","EPHEMERIS_TYPE":"0","ELEMENT_SET_NO":"999","REV_AT_EPOCH":"3967","BSTAR":"0.00017714","MEAN_MOTION_DOT":"7.57e-06","MEAN_MOTION_DDOT":"0","FILE":"1852926","TLE_LINE0":"0 FREGAT DEB","TLE_LINE1":"1 40078U 14037K   15098.18864525  .00000757  00000-0  17714-3 0  9998","TLE_LINE2":"2 40078 098.3396 153.4622 0139465 104.7711 256.8968 14.51709470 39678","OBJECT_ID":"2014-037K","OBJECT_NUMBER":"40078"},{"ORDINAL":"2","COMMENT":"GENERATED VIA SPACETRACK.ORG API","ORIGINATOR":"JSPOC","NORAD_CAT_ID":"40343","OBJECT_NAME":"CZ-4C DEB","OBJECT_TYPE":"DEBRIS","CLASSIFICATION_TYPE":"U","INTLDES":"14080F","EPOCH":"2015-04-08 05:29:25","EPOCH_MICROSECONDS":"142208","MEAN_MOTION":"13.44172835","ECCENTRICITY":"0.0014786","INCLINATION":"63.418","RA_OF_ASC_NODE":"17.2283","ARG_OF_PERICENTER":"5.2579","MEAN_ANOMALY":"354.86","EPHEMERIS_TYPE":"0","ELEMENT_SET_NO":"999","REV_AT_EPOCH":"1592","BSTAR":"0","MEAN_MOTION_DOT":"-9e-07","MEAN_MOTION_DDOT":"0","FILE":"1853000","TLE_LINE0":"0 CZ-4C DEB","TLE_LINE1":"1 40343U 14080F   15098.22876322 -.00000090  00000-0  00000+0 0  9991","TLE_LINE2":"2 40343 063.4180 017.2283 0014786 005.2579 354.8600 13.44172835 15926","OBJECT_ID":"2014-080F","OBJECT_NUMBER":"40343"},{"ORDINAL":"4","COMMENT":"GENERATED VIA SPACETRACK.ORG API","ORIGINATOR":"JSPOC","NORAD_CAT_ID":"40537","OBJECT_NAME":"SL-24 DEB","OBJECT_TYPE":"DEBRIS","CLASSIFICATION_TYPE":"U","INTLDES":"15014B","EPOCH":"2015-04-08 07:06:20","EPOCH_MICROSECONDS":"644992","MEAN_MOTION":"15.16823291","ECCENTRICITY":"0.0024301","INCLINATION":"97.515","RA_OF_ASC_NODE":"38.7992","ARG_OF_PERICENTER":"281.9428","MEAN_ANOMALY":"77.9047","EPHEMERIS_TYPE":"0","ELEMENT_SET_NO":"999","REV_AT_EPOCH":"202","BSTAR":"0.00094355","MEAN_MOTION_DOT":"0.00018654","MEAN_MOTION_DDOT":"0","FILE":"1852960","TLE_LINE0":"0 SL-24 DEB","TLE_LINE1":"1 40537U 15014B   15098.29607228  .00018654  00000-0  94355-3 0  9992","TLE_LINE2":"2 40537 097.5150 038.7992 0024301 281.9428 077.9047 15.16823291  2026","OBJECT_ID":"2015-014B","OBJECT_NUMBER":"40537"},{"ORDINAL":"5","COMMENT":"GENERATED VIA SPACETRACK.ORG API","ORIGINATOR":"JSPOC","NORAD_CAT_ID":"40537","OBJECT_NAME":"SL-24 DEB","OBJECT_TYPE":"DEBRIS","CLASSIFICATION_TYPE":"U","INTLDES":"15014B","EPOCH":"2015-04-08 07:06:21","EPOCH_MICROSECONDS":"286080","MEAN_MOTION":"15.16836326","ECCENTRICITY":"0.0023369","INCLINATION":"97.5181","RA_OF_ASC_NODE":"38.803","ARG_OF_PERICENTER":"281.8419","MEAN_ANOMALY":"78.0707","EPHEMERIS_TYPE":"0","ELEMENT_SET_NO":"999","REV_AT_EPOCH":"202","BSTAR":"0.000721","MEAN_MOTION_DOT":"0.00014263","MEAN_MOTION_DDOT":"0","FILE":"1852606","TLE_LINE0":"0 SL-24 DEB","TLE_LINE1":"1 40537U 15014B   15098.29607970  .00014263  00000-0  72100-3 0  9992","TLE_LINE2":"2 40537 097.5181 038.8030 0023369 281.8419 078.0707 15.16836326  2024","OBJECT_ID":"2015-014B","OBJECT_NUMBER":"40537"},{"ORDINAL":"4","COMMENT":"GENERATED VIA SPACETRACK.ORG API","ORIGINATOR":"JSPOC","NORAD_CAT_ID":"39511","OBJECT_NAME":"ARIANE 5 DEB (SYLDA)","OBJECT_TYPE":"DEBRIS","CLASSIFICATION_TYPE":"U","INTLDES":"14006D","EPOCH":"2015-04-08 07:37:12","EPOCH_MICROSECONDS":"377567","MEAN_MOTION":"2.63563279","ECCENTRICITY":"0.6996641","INCLINATION":"5.9278","RA_OF_ASC_NODE":"89.2506","ARG_OF_PERICENTER":"202.2413","MEAN_ANOMALY":"99.2103","EPHEMERIS_TYPE":"0","ELEMENT_SET_NO":"999","REV_AT_EPOCH":"1030","BSTAR":"0.0033677","MEAN_MOTION_DOT":"9.937e-05","MEAN_MOTION_DDOT":"0","FILE":"1853077","TLE_LINE0":"0 ARIANE 5 DEB (SYLDA)","TLE_LINE1":"1 39511U 14006D   15098.31750437  .00009937  00000-0  33677-2 0  9999","TLE_LINE2":"2 39511 005.9278 089.2506 6996641 202.2413 099.2103 02.63563279 10308","OBJECT_ID":"2014-006D","OBJECT_NUMBER":"39511"},{"ORDINAL":"5","COMMENT":"GENERATED VIA SPACETRACK.ORG API","ORIGINATOR":"JSPOC","NORAD_CAT_ID":"39619","OBJECT_NAME":"ARIANE 5 DEB (SYLDA)","OBJECT_TYPE":"DEBRIS","CLASSIFICATION_TYPE":"U","INTLDES":"14011D","EPOCH":"2015-04-08 08:51:55","EPOCH_MICROSECONDS":"956959","MEAN_MOTION":"2.85147088","ECCENTRICITY":"0.6847591","INCLINATION":"2.5694","RA_OF_ASC_NODE":"159.7339","ARG_OF_PERICENTER":"170.5571","MEAN_ANOMALY":"216.3322","EPHEMERIS_TYPE":"0","ELEMENT_SET_NO":"999","REV_AT_EPOCH":"935","BSTAR":"0.0074569","MEAN_MOTION_DOT":"0.00042947","MEAN_MOTION_DDOT":"0","FILE":"1852996","TLE_LINE0":"0 ARIANE 5 DEB (SYLDA)","TLE_LINE1":"1 39619U 14011D   15098.36939765  .00042947  00000-0  74569-2 0  9995","TLE_LINE2":"2 39619 002.5694 159.7339 6847591 170.5571 216.3322 02.85147088  9358","OBJECT_ID":"2014-011D","OBJECT_NUMBER":"39619"},{"ORDINAL":"5","COMMENT":"GENERATED VIA SPACETRACK.ORG API","ORIGINATOR":"JSPOC","NORAD_CAT_ID":"39628","OBJECT_NAME":"CZ-2C DEB","OBJECT_TYPE":"DEBRIS","CLASSIFICATION_TYPE":"U","INTLDES":"14014E","EPOCH":"2015-04-08 09:31:28","EPOCH_MICROSECONDS":"454303","MEAN_MOTION":"14.50137502","ECCENTRICITY":"0.0109701","INCLINATION":"98.4553","RA_OF_ASC_NODE":"158.7881","ARG_OF_PERICENTER":"166.0822","MEAN_ANOMALY":"194.3928","EPHEMERIS_TYPE":"0","ELEMENT_SET_NO":"999","REV_AT_EPOCH":"5404","BSTAR":"0.0005826","MEAN_MOTION_DOT":"2.443e-05","MEAN_MOTION_DDOT":"0","FILE":"1852639","TLE_LINE0":"0 CZ-2C DEB","TLE_LINE1":"1 39628U 14014E   15098.39685711  .00002443  00000-0  58260-3 0  9998","TLE_LINE2":"2 39628 098.4553 158.7881 0109701 166.0822 194.3928 14.50137502 54042","OBJECT_ID":"2014-014E","OBJECT_NUMBER":"39628"},{"ORDINAL":"2","COMMENT":"GENERATED VIA SPACETRACK.ORG API","ORIGINATOR":"JSPOC","NORAD_CAT_ID":"40114","OBJECT_NAME":"CZ-4C DEB","OBJECT_TYPE":"DEBRIS","CLASSIFICATION_TYPE":"U","INTLDES":"14047F","EPOCH":"2015-04-08 09:49:59","EPOCH_MICROSECONDS":"685312","MEAN_MOTION":"13.43579348","ECCENTRICITY":"0.0029833","INCLINATION":"63.4171","RA_OF_ASC_NODE":"91.7954","ARG_OF_PERICENTER":"13.1531","MEAN_ANOMALY":"347.0266","EPHEMERIS_TYPE":"0","ELEMENT_SET_NO":"999","REV_AT_EPOCH":"3254","BSTAR":"0","MEAN_MOTION_DOT":"-9e-07","MEAN_MOTION_DDOT":"0","FILE":"1852971","TLE_LINE0":"0 CZ-4C DEB","TLE_LINE1":"1 40114U 14047F   15098.40971858 -.00000090  00000-0  00000+0 0  9990","TLE_LINE2":"2 40114 063.4171 091.7954 0029833 013.1531 347.0266 13.43579348 32547","OBJECT_ID":"2014-047F","OBJECT_NUMBER":"40114"},{"ORDINAL":"3","COMMENT":"GENERATED VIA SPACETRACK.ORG API","ORIGINATOR":"JSPOC","NORAD_CAT_ID":"40507","OBJECT_NAME":"BREEZE-M DEB (TANK)","OBJECT_TYPE":"DEBRIS","CLASSIFICATION_TYPE":"U","INTLDES":"15012C","EPOCH":"2015-04-08 09:56:26","EPOCH_MICROSECONDS":"720160","MEAN_MOTION":"4.76848462","ECCENTRICITY":"0.5497082","INCLINATION":"49.4433","RA_OF_ASC_NODE":"142.6193","ARG_OF_PERICENTER":"5.2406","MEAN_ANOMALY":"358.8236","EPHEMERIS_TYPE":"0","ELEMENT_SET_NO":"999","REV_AT_EPOCH":"97","BSTAR":"0.00032634","MEAN_MOTION_DOT":"9.46e-06","MEAN_MOTION_DDOT":"0","FILE":"1852639","TLE_LINE0":"0 BREEZE-M DEB (TANK)","TLE_LINE1":"1 40507U 15012C   15098.41419815  .00000946  00000-0  32634-3 0  9991","TLE_LINE2":"2 40507 049.4433 142.6193 5497082 005.2406 358.8236 04.76848462   973","OBJECT_ID":"2015-012C","OBJECT_NUMBER":"40507"}]